[
  {
    "OBJECT_NAME": "STARLINK-2299",
    "OBJECT_ID": "2021-024BE",
    "EPOCH": "2023-02-11T21:46:30.792576",
    "MEAN_MOTION": 15.06392704,
    "ECCENTRICITY": 0.0001217,
    "INCLINATION": 53.0541,
    "RA_OF_ASC_NODE": 327.4956,
    "ARG_OF_PERICENTER": 82.9627,
    "MEAN_ANOMALY": 277.1501,
    "EPHEMERIS_TYPE": 0,
    "CLASSIFICATION_TYPE": "U",
    "NORAD_CAT_ID": 48029,
    "ELEMENT_SET_NO": 999,
    "REV_AT_EPOCH": 10555,
    "BSTAR": 0.0035421,
    "MEAN_MOTION_DOT": 0.00052864,
    "MEAN_MOTION_DDOT": 0
  },
  {
    "OBJECT_NAME": "STARLINK-2268",
    "OBJECT_ID": "2021-024BF",
    "EPOCH": "2023-02-11T19:14:35.019744",
    "MEAN_MOTION": 15.06429453,
    "ECCENTRICITY": 0.0001488,
    "INCLINATION": 53.0528,
    "RA_OF_ASC_NODE": 332.9758,
    "ARG_OF_PERICENTER": 84.0638,
    "MEAN_ANOMALY": 276.0521,
    "EPHEMERIS_TYPE": 0,
    "CLASSIFICATION_TYPE": "U",
    "NORAD_CAT_ID": 48030,
    "ELEMENT_SET_NO": 999,
    "REV_AT_EPOCH": 10540,
    "BSTAR": 0.0037893,
    "MEAN_MOTION_DOT": 0.00056661,
    "MEAN_MOTION_DDOT": 0
  },
  {
    "OBJECT_NAME": "STARLINK-2267",
    "OBJECT_ID": "2021-024BG",
    "EPOCH": "2023-02-11T20:09:38.724192",
    "MEAN_MOTION": 15.06398482,
    "ECCENTRICITY": 0.0001372,
    "INCLINATION": 53.0513,
    "RA_OF_ASC_NODE": 217.7983,
    "ARG_OF_PERICENTER": 86.8836,
    "MEAN_ANOMALY": 273.231,
    "EPHEMERIS_TYPE": 0,
    "CLASSIFICATION_TYPE": "U",
    "NORAD_CAT_ID": 48031,
    "ELEMENT_SET_NO": 999,
    "REV_AT_EPOCH": 10655,
    "BSTAR": 4.4615e-5,
    "MEAN_MOTION_DOT": 3.83e-6,
    "MEAN_MOTION_DDOT": 0
  },
  {
    "OBJECT_NAME": "STARLINK-2286",
    "OBJECT_ID": "2021-024BJ",
    "EPOCH": "2023-02-11T19:55:02.316288",
    "MEAN_MOTION": 15.06401376,
    "ECCENTRICITY": 0.0001426,
    "INCLINATION": 53.0544,
    "RA_OF_ASC_NODE": 327.849,
    "ARG_OF_PERICENTER": 110.4729,
    "MEAN_ANOMALY": 249.6413,
    "EPHEMERIS_TYPE": 0,
    "CLASSIFICATION_TYPE": "U",
    "NORAD_CAT_ID": 48033,
    "ELEMENT_SET_NO": 999,
    "REV_AT_EPOCH": 10554,
    "BSTAR": -0.00045765,
    "MEAN_MOTION_DOT": -7.092e-5,
    "MEAN_MOTION_DDOT": 0
  },
  {
    "OBJECT_NAME": "STARLINK-2288",
    "OBJECT_ID": "2021-024BK",
    "EPOCH": "2023-02-11T18:46:02.479296",
    "MEAN_MOTION": 15.06426652,
    "ECCENTRICITY": 0.0001524,
    "INCLINATION": 53.0522,
    "RA_OF_ASC_NODE": 328.0659,
    "ARG_OF_PERICENTER": 92.0629,
    "MEAN_ANOMALY": 268.0535,
    "EPHEMERIS_TYPE": 0,
    "CLASSIFICATION_TYPE": "U",
    "NORAD_CAT_ID": 48034,
    "ELEMENT_SET_NO": 999,
    "REV_AT_EPOCH": 10553,
    "BSTAR": 0.0024511,
    "MEAN_MOTION_DOT": 0.00036443,
    "MEAN_MOTION_DDOT": 0
  },
  {
    "OBJECT_NAME": "STARLINK-2295",
    "OBJECT_ID": "2021-024BM",
    "EPOCH": "2023-02-11T04:36:48.149280",
    "MEAN_MOTION": 15.06439624,
    "ECCENTRICITY": 0.0001415,
    "INCLINATION": 53.0534,
    "RA_OF_ASC_NODE": 330.7113,
    "ARG_OF_PERICENTER": 76.9687,
    "MEAN_ANOMALY": 283.146,
    "EPHEMERIS_TYPE": 0,
    "CLASSIFICATION_TYPE": "U",
    "NORAD_CAT_ID": 48036,
    "ELEMENT_SET_NO": 999,
    "REV_AT_EPOCH": 10491,
    "BSTAR": 0.0029062,
    "MEAN_MOTION_DOT": 0.0004332,
    "MEAN_MOTION_DDOT": 0
  },
  {
    "OBJECT_NAME": "BCCSAT-1",
    "OBJECT_ID": "2021-022AK",
    "EPOCH": "2023-02-11T18:36:32.196096",
    "MEAN_MOTION": 15.1364368,
    "ECCENTRICITY": 0.0015553,
    "INCLINATION": 97.512,
    "RA_OF_ASC_NODE": 303.9215,
    "ARG_OF_PERICENTER": 39.8584,
    "MEAN_ANOMALY": 320.3787,
    "EPHEMERIS_TYPE": 0,
    "CLASSIFICATION_TYPE": "U",
    "NORAD_CAT_ID": 48041,
    "ELEMENT_SET_NO": 999,
    "REV_AT_EPOCH": 10297,
    "BSTAR": 0.0015012,
    "MEAN_MOTION_DOT": 0.00027074,
    "MEAN_MOTION_DDOT": 0
  },
  {
    "OBJECT_NAME": "ONEWEB-0115",
    "OBJECT_ID": "2021-025A",
    "EPOCH": "2023-02-11T10:32:22.058880",
    "MEAN_MOTION": 13.13471397,
    "ECCENTRICITY": 0.0001429,
    "INCLINATION": 87.9051,
    "RA_OF_ASC_NODE": 203.0147,
    "ARG_OF_PERICENTER": 88.2166,
    "MEAN_ANOMALY": 271.9127,
    "EPHEMERIS_TYPE": 0,
    "CLASSIFICATION_TYPE": "U",
    "NORAD_CAT_ID": 48042,
    "ELEMENT_SET_NO": 999,
    "REV_AT_EPOCH": 9321,
    "BSTAR": 0.00074412,
    "MEAN_MOTION_DOT": 2.84e-6,
    "MEAN_MOTION_DDOT": 0
  },
  {
    "OBJECT_NAME": "ONEWEB-0152",
    "OBJECT_ID": "2021-025B",
    "EPOCH": "2023-02-11T16:19:46.102080",
    "MEAN_MOTION": 13.13470471,
    "ECCENTRICITY": 0.0001341,
    "INCLINATION": 87.9049,
    "RA_OF_ASC_NODE": 202.956,
    "ARG_OF_PERICENTER": 96.5412,
    "MEAN_ANOMALY": 263.5869,
    "EPHEMERIS_TYPE": 0,
    "CLASSIFICATION_TYPE": "U",
    "NORAD_CAT_ID": 48043,
    "ELEMENT_SET_NO": 999,
    "REV_AT_EPOCH": 9320,
    "BSTAR": 0.00014571,
    "MEAN_MOTION_DOT": 6.6e-7,
    "MEAN_MOTION_DDOT": 0
  },
  {
    "OBJECT_NAME": "ONEWEB-0153",
    "OBJECT_ID": "2021-025C",
    "EPOCH": "2023-02-11T17:35:55.830048",
    "MEAN_MOTION": 13.1346977,
    "ECCENTRICITY": 0.0001406,
    "INCLINATION": 87.9051,
    "RA_OF_ASC_NODE": 202.9338,
    "ARG_OF_PERICENTER": 101.673,
    "MEAN_ANOMALY": 258.4557,
    "EPHEMERIS_TYPE": 0,
    "CLASSIFICATION_TYPE": "U",
    "NORAD_CAT_ID": 48044,
    "ELEMENT_SET_NO": 999,
    "REV_AT_EPOCH": 9320,
    "BSTAR": 0.00088578,
    "MEAN_MOTION_DOT": 3.36e-6,
    "MEAN_MOTION_DDOT": 0
  },
  {
    "OBJECT_NAME": "ONEWEB-0154",
    "OBJECT_ID": "2021-025D",
    "EPOCH": "2023-02-11T19:22:34.067136",
    "MEAN_MOTION": 13.13471111,
    "ECCENTRICITY": 0.00014,
    "INCLINATION": 87.9054,
    "RA_OF_ASC_NODE": 202.9332,
    "ARG_OF_PERICENTER": 100.0088,
    "MEAN_ANOMALY": 260.1199,
    "EPHEMERIS_TYPE": 0,
    "CLASSIFICATION_TYPE": "U",
    "NORAD_CAT_ID": 48045,
    "ELEMENT_SET_NO": 999,
    "REV_AT_EPOCH": 9318,
    "BSTAR": 0.00088884,
    "MEAN_MOTION_DOT": 3.37e-6,
    "MEAN_MOTION_DDOT": 0
  },
  {
    "OBJECT_NAME": "ONEWEB-0116",
    "OBJECT_ID": "2021-025E",
    "EPOCH": "2023-02-11T11:15:02.107296",
    "MEAN_MOTION": 13.13470923,
    "ECCENTRICITY": 0.0001569,
    "INCLINATION": 87.9017,
    "RA_OF_ASC_NODE": 203.0024,
    "ARG_OF_PERICENTER": 86.9068,
    "MEAN_ANOMALY": 273.2241,
    "EPHEMERIS_TYPE": 0,
    "CLASSIFICATION_TYPE": "U",
    "NORAD_CAT_ID": 48046,
    "ELEMENT_SET_NO": 999,
    "REV_AT_EPOCH": 9327,
    "BSTAR": -0.00095296,
    "MEAN_MOTION_DOT": -3.35e-6,
    "MEAN_MOTION_DDOT": 0
  },
  {
    "OBJECT_NAME": "ONEWEB-0150",
    "OBJECT_ID": "2021-025F",
    "EPOCH": "2023-02-11T19:43:54.365664",
    "MEAN_MOTION": 13.13468552,
    "ECCENTRICITY": 0.0001592,
    "INCLINATION": 87.9051,
    "RA_OF_ASC_NODE": 202.9305,
    "ARG_OF_PERICENTER": 105.5886,
    "MEAN_ANOMALY": 254.5419,
    "EPHEMERIS_TYPE": 0,
    "CLASSIFICATION_TYPE": "U",
    "NORAD_CAT_ID": 48047,
    "ELEMENT_SET_NO": 999,
    "REV_AT_EPOCH": 9321,
    "BSTAR": 0.0006009,
    "MEAN_MOTION_DOT": 2.32e-6,
    "MEAN_MOTION_DDOT": 0
  },
  {
    "OBJECT_NAME": "ONEWEB-0107",
    "OBJECT_ID": "2021-025G",
    "EPOCH": "2023-02-11T16:07:32.618784",
    "MEAN_MOTION": 13.13471307,
    "ECCENTRICITY": 0.0001547,
    "INCLINATION": 87.9046,
    "RA_OF_ASC_NODE": 202.9593,
    "ARG_OF_PERICENTER": 115.899,
    "MEAN_ANOMALY": 244.2298,
    "EPHEMERIS_TYPE": 0,
    "CLASSIFICATION_TYPE": "U",
    "NORAD_CAT_ID": 48048,
    "ELEMENT_SET_NO": 999,
    "REV_AT_EPOCH": 9317,
    "BSTAR": 0.00062723,
    "MEAN_MOTION_DOT": 2.42e-6,
    "MEAN_MOTION_DDOT": 0
  }
]
