STARLINK-2299           
1 48029U 21024BE  23042.90730084  .00052864  00000+0  35421-2 0  9995
2 48029  53.0541 327.4956 0001217  82.9627 277.1501 15.06392704105550
STARLINK-2268           
1 48030U 21024BF  23042.80179421  .00056661  00000+0  37893-2 0  9992
2 48030  53.0528 332.9758 0001488  84.0638 276.0521 15.06429453105409
STARLINK-2267           
1 48031U 21024BG  23042.84003153  .00000383  00000+0  44615-4 0  9997
2 48031  53.0513 217.7983 0001372  86.8836 273.2310 15.06398482106555
STARLINK-2286           
1 48033U 21024BJ  23042.82988792 -.00007092  00000+0 -45765-3 0  9990
2 48033  53.0544 327.8490 0001426 110.4729 249.6413 15.06401376105548
STARLINK-2288           
1 48034U 21024BK  23042.78197314  .00036443  00000+0  24511-2 0  9993
2 48034  53.0522 328.0659 0001524  92.0629 268.0535 15.06426652105531
STARLINK-2295           
1 48036U 21024BM  23042.19222395  .00043320  00000+0  29062-2 0  9996
2 48036  53.0534 330.7113 0001415  76.9687 283.1460 15.06439624104914
BCCSAT-1                
1 48041U 21022AK  23042.77537264  .00027074  00000+0  15012-2 0  9996
2 48041  97.5120 303.9215 0015553  39.8584 320.3787 15.13643680102978
ONEWEB-0115             
1 48042U 21025A   23042.43914420  .00000284  00000+0  74412-3 0  9990
2 48042  87.9051 203.0147 0001429  88.2166 271.9127 13.13471397 93217
ONEWEB-0152             
1 48043U 21025B   23042.68039470  .00000066  00000+0  14571-3 0  9999
2 48043  87.9049 202.9560 0001341  96.5412 263.5869 13.13470471 93202
ONEWEB-0153             
1 48044U 21025C   23042.73328507  .00000336  00000+0  88578-3 0  9996
2 48044  87.9051 202.9338 0001406 101.6730 258.4557 13.13469770 93209
ONEWEB-0154             
1 48045U 21025D   23042.80733874  .00000337  00000+0  88884-3 0  9993
2 48045  87.9054 202.9332 0001400 100.0088 260.1199 13.13471111 93181
ONEWEB-0116             
1 48046U 21025E   23042.46877439 -.00000335  00000+0 -95296-3 0  9997
2 48046  87.9017 203.0024 0001569  86.9068 273.2241 13.13470923 93270
ONEWEB-0150             
1 48047U 21025F   23042.82215701  .00000232  00000+0  60090-3 0  9994
2 48047  87.9051 202.9305 0001592 105.5886 254.5419 13.13468552 93219
ONEWEB-0107             
1 48048U 21025G   23042.67190531  .00000242  00000+0  62723-3 0  9997
2 48048  87.9046 202.9593 0001547 115.8990 244.2298 13.13471307 93171
